OBJECT_NAME,OBJECT_ID,EPOCH,MEAN_MOTION,ECCENTRICITY,INCLINATION,RA_OF_ASC_NODE,ARG_OF_PERICENTER,MEAN_ANOMALY,EPHEMERIS_TYPE,CLASSIFICATION_TYPE,NORAD_CAT_ID,ELEMENT_SET_NO,REV_AT_EPOCH,BSTAR,MEAN_MOTION_DOT,MEAN_MOTION_DDOT
SIRION PATHFINDER-2,2018-099B,2026-06-07T00:10:01.262784,15.14461179,.00080585,97.4258,207.3071,345.2486,14.8510,0,U,43759,999,41108,.32915844E-3,.5994E-4,0
CORVUS BC4,2018-099K,2026-06-06T16:03:16.132608,15.12410191,.00092638,97.4067,200.9576,46.3509,313.8488,0,U,43767,999,41081,.32934866E-3,.5662E-4,0
M2 PATHFINDER,2020-037E,2026-06-07T06:30:21.521088,15.04633820,.00115418,97.8159,349.3911,180.0595,180.0631,0,U,45727,999,32400,.232869E-3,.3212E-4,0
NETSAT-4,2020-068U,2026-06-07T06:31:40.824192,15.43533344,.00051609,97.8612,165.7184,17.7874,342.3552,0,U,46504,999,31424,.41758329E-3,.18669E-3,0
NETSAT-3,2020-068V,2026-06-07T06:29:41.035776,15.42336147,.00055484,97.8661,163.9460,35.2624,324.8988,0,U,46505,999,31415,.41674572E-3,.17897E-3,0
NETSAT-1,2020-068W,2026-06-06T13:43:08.301504,15.34388994,.00061912,97.8751,157.6478,61.7667,298.4199,0,U,46506,999,31367,.51189457E-3,.16988E-3,0
NETSAT-2,2020-068X,2026-06-07T06:15:24.123168,15.45571255,.00047651,97.8622,165.5652,53.4495,306.7190,0,U,46507,999,31420,.47757606E-3,.22906E-3,0
GREENCUBE (IO-117),2022-080E,2026-06-01T11:09:37.753056,6.42583280,.00088692,70.1435,303.7143,293.3663,66.6064,0,U,53109,999,9105,0,-.3E-7,0
SITRO-AIS 5 (KATYS),2023-091L,2026-06-06T23:51:04.579200,15.29220289,.00126166,97.5060,221.7980,135.0560,225.1704,0,U,57176,999,16278,.51984267E-3,.14709E-3,0
SITRO-AIS 6 (CHIRKIN),2023-091AC,2026-06-07T00:21:32.031648,15.25740189,.0012899,97.5067,220.9920,137.9212,222.3019,0,U,57192,999,16273,.44751547E-3,.11376E-3,0
SITRO-AIS 8 (ANOKHIN),2023-091AD,2026-06-06T23:06:58.789152,15.31857374,.00118114,97.5056,223.3145,131.2338,228.9923,0,U,57193,999,16288,.51140059E-3,.15699E-3,0
SITRO-AIS 7 (FARTUSHNIY),2023-091AE,2026-06-07T00:23:05.492256,15.25432859,.00127272,97.5065,220.8234,138.7391,221.4811,0,U,57194,999,16272,.42946275E-3,.10813E-3,0
SITRO-AIS 10 (BURDAEV),2023-091AK,2026-06-06T23:20:10.030848,15.38221549,.00079514,97.5080,228.2737,110.0186,250.1915,0,U,57199,999,16319,.59567111E-3,.22403E-3,0
SITRO-AIS 9 (SHCHUKIN),2023-091AM,2026-06-06T23:53:34.192032,15.37746387,.00081811,97.5077,228.0353,110.3775,249.8349,0,U,57201,999,16318,.5883401E-3,.21787E-3,0
SITRO-AIS 12 (SMIRENNIY),2023-091AQ,2026-06-06T23:42:49.981536,15.38035630,.0007826,97.5090,228.4884,105.0598,255.1513,0,U,57204,999,16320,.57925212E-3,.21649E-3,0
SITRO-AIS 11 (SHEFFER),2023-091AU,2026-06-07T00:06:10.318176,15.38451857,.00077148,97.5088,228.7451,105.0973,255.1126,0,U,57208,999,16322,.58940159E-3,.22332E-3,0
SITRO-AIS 25,2024-039R,2026-06-07T06:13:16.144032,14.93459077,.01447662,95.3907,228.2705,3.6350,356.5891,0,U,59066,999,12324,.30385839E-3,.3892E-4,0
SITRO-AIS 26,2024-039S,2026-06-07T06:13:18.033600,14.93256147,.01451219,95.3907,228.1701,4.2091,356.0316,0,U,59067,999,12323,.30910956E-3,.3942E-4,0
SITRO-AIS 27,2024-039T,2026-06-07T07:10:55.072128,14.93675679,.01441978,95.3912,228.4649,2.7329,357.4651,0,U,59068,999,12326,.2530792E-3,.325E-4,0
SITRO-AIS 28,2024-039U,2026-06-07T06:38:45.731616,14.93710129,.01440295,95.3914,228.4961,2.6902,357.5065,0,U,59071,999,12326,.32162868E-3,.4142E-4,0
GRBBETA,2024-128C,2026-06-06T23:58:43.309632,15.06569386,.00419895,61.9898,252.0094,132.5865,227.8783,0,U,60237,999,10473,.34275533E-3,.4983E-4,0
OOV-CUBE (TUBSAT-30),2024-128F,2026-06-06T20:59:48.359328,15.02728483,.00459198,61.9952,261.5303,131.4461,229.0588,0,U,60240,999,10456,.22098619E-3,.2819E-4,0
ROBUSTA-3A (MEDITERRANEE),2024-128J,2026-06-06T14:48:32.848704,15.11543644,.00428162,61.9860,245.6203,125.8059,234.7027,0,U,60243,999,10482,.56280144E-3,.959E-4,0
LASARSAT,2024-247Q,2026-06-03T22:10:16.072896,15.45494859,.00080478,44.9754,336.7002,258.6055,101.3931,0,U,62391,999,8126,.75515127E-3,.36882E-3,0
CROCUBE,2024-247T,2026-06-06T20:13:00.782688,15.47515230,.00081442,44.9730,317.8161,277.6429,82.3536,0,U,62394,999,8174,.84876346E-3,.44564E-3,0
FORESAIL-1 PRIME,2025-276DS,2026-06-06T15:38:40.926912,15.18605818,.0003661,97.4198,231.1163,125.3136,234.8442,0,U,66778,999,2880,.26555905E-3,.5428E-4,0
KNACKSAT-2,1998-067XZ,2026-06-07T05:25:32.092896,15.59067140,.00104243,51.6300,344.5496,171.5518,188.5652,0,U,67683,999,1872,.61320379E-3,.48677E-3,0
